[{"OBJECT_NAME":"SL-8 R/B","OBJECT_ID":"1988-053B","EPOCH":"2026-03-15T07:01:24.987648","MEAN_MOTION":14.38919435,"ECCENTRICITY":0.00215134,"INCLINATION":74.0453,"RA_OF_ASC_NODE":102.1378,"ARG_OF_PERICENTER":280.695,"MEAN_ANOMALY":164.4918,"EPHEMERIS_TYPE":0,"CLASSIFICATION_TYPE":"U","NORAD_CAT_ID":19257,"ELEMENT_SET_NO":999,"REV_AT_EPOCH":97740,"BSTAR":9.8967695e-5,"MEAN_MOTION_DOT":2.79e-6,"MEAN_MOTION_DDOT":0},{"OBJECT_NAME":"COSMOS 1975","OBJECT_ID":"1988-093A","EPOCH":"2026-03-15T03:50:11.246496","MEAN_MOTION":15.28153939,"ECCENTRICITY":0.00126362,"INCLINATION":82.5177,"RA_OF_ASC_NODE":112.1934,"ARG_OF_PERICENTER":145.1258,"MEAN_ANOMALY":215.0812,"EPHEMERIS_TYPE":0,"CLASSIFICATION_TYPE":"U","NORAD_CAT_ID":19573,"ELEMENT_SET_NO":999,"REV_AT_EPOCH":2024,"BSTAR":0.0002832484,"MEAN_MOTION_DOT":7.822e-5,"MEAN_MOTION_DDOT":0},{"OBJECT_NAME":"SL-14 R/B","OBJECT_ID":"1988-093B","EPOCH":"2026-03-14T23:36:30.264768","MEAN_MOTION":14.85663943,"ECCENTRICITY":0.00213766,"INCLINATION":82.5314,"RA_OF_ASC_NODE":37.0739,"ARG_OF_PERICENTER":24.7698,"MEAN_ANOMALY":39.7715,"EPHEMERIS_TYPE":0,"CLASSIFICATION_TYPE":"U","NORAD_CAT_ID":19574,"ELEMENT_SET_NO":999,"REV_AT_EPOCH":180,"BSTAR":7.5947853e-5,"MEAN_MOTION_DOT":6.85e-6,"MEAN_MOTION_DDOT":0},{"OBJECT_NAME":"SL-16 R/B","OBJECT_ID":"1988-102B","EPOCH":"2026-03-15T06:33:22.383936","MEAN_MOTION":14.16155361,"ECCENTRICITY":0.00143043,"INCLINATION":70.9994,"RA_OF_ASC_NODE":139.7493,"ARG_OF_PERICENTER":352.7515,"MEAN_ANOMALY":7.3399,"EPHEMERIS_TYPE":0,"CLASSIFICATION_TYPE":"U","NORAD_CAT_ID":19650,"ELEMENT_SET_NO":999,"REV_AT_EPOCH":92768,"BSTAR":9.6703393e-5,"MEAN_MOTION_DOT":1.44e-6,"MEAN_MOTION_DDOT":0},{"OBJECT_NAME":"INTERCOSMOS 24","OBJECT_ID":"1989-080A","EPOCH":"2026-03-15T01:04:40.585152","MEAN_MOTION":12.59566664,"ECCENTRICITY":0.11866718,"INCLINATION":82.6019,"RA_OF_ASC_NODE":100.9161,"ARG_OF_PERICENTER":280.3778,"MEAN_ANOMALY":66.5937,"EPHEMERIS_TYPE":0,"CLASSIFICATION_TYPE":"U","NORAD_CAT_ID":20261,"ELEMENT_SET_NO":999,"REV_AT_EPOCH":66747,"BSTAR":0.00022331761,"MEAN_MOTION_DOT":7.5e-6,"MEAN_MOTION_DDOT":0},{"OBJECT_NAME":"SL-14 R/B","OBJECT_ID":"1989-080C","EPOCH":"2026-03-15T05:41:36.973536","MEAN_MOTION":12.50500639,"ECCENTRICITY":0.12307141,"INCLINATION":82.5972,"RA_OF_ASC_NODE":169.6264,"ARG_OF_PERICENTER":172.074,"MEAN_ANOMALY":190.1965,"EPHEMERIS_TYPE":0,"CLASSIFICATION_TYPE":"U","NORAD_CAT_ID":20262,"ELEMENT_SET_NO":999,"REV_AT_EPOCH":66084,"BSTAR":0.00016388689,"MEAN_MOTION_DOT":5.64e-6,"MEAN_MOTION_DDOT":0},{"OBJECT_NAME":"DELTA 1 R/B","OBJECT_ID":"1989-089B","EPOCH":"2026-03-15T03:20:01.379040","MEAN_MOTION":14.50668026,"ECCENTRICITY":0.0070672,"INCLINATION":97.0702,"RA_OF_ASC_NODE":280.7108,"ARG_OF_PERICENTER":105.0715,"MEAN_ANOMALY":255.8317,"EPHEMERIS_TYPE":0,"CLASSIFICATION_TYPE":"U","NORAD_CAT_ID":20323,"ELEMENT_SET_NO":999,"REV_AT_EPOCH":89652,"BSTAR":0.00010727375,"MEAN_MOTION_DOT":4.0e-6,"MEAN_MOTION_DDOT":0},{"OBJECT_NAME":"ARIANE 40 R/B","OBJECT_ID":"1990-005H","EPOCH":"2026-03-15T03:56:38.894784","MEAN_MOTION":14.3987451,"ECCENTRICITY":0.00101866,"INCLINATION":98.3071,"RA_OF_ASC_NODE":134.6624,"ARG_OF_PERICENTER":181.7517,"MEAN_ANOMALY":178.3638,"EPHEMERIS_TYPE":0,"CLASSIFICATION_TYPE":"U","NORAD_CAT_ID":20443,"ELEMENT_SET_NO":999,"REV_AT_EPOCH":89359,"BSTAR":0.0001083812,"MEAN_MOTION_DOT":2.98e-6,"MEAN_MOTION_DDOT":0},{"OBJECT_NAME":"DELTA 2 R/B(1)","OBJECT_ID":"1990-008B","EPOCH":"2026-03-14T21:23:28.613760","MEAN_MOTION":15.56709705,"ECCENTRICITY":0.00835566,"INCLINATION":35.6033,"RA_OF_ASC_NODE":140.6976,"ARG_OF_PERICENTER":306.7395,"MEAN_ANOMALY":52.5691,"EPHEMERIS_TYPE":0,"CLASSIFICATION_TYPE":"U","NORAD_CAT_ID":20453,"ELEMENT_SET_NO":999,"REV_AT_EPOCH":92694,"BSTAR":0.00079741782,"MEAN_MOTION_DOT":0.00069746,"MEAN_MOTION_DDOT":0},{"OBJECT_NAME":"COSMOS 2058","OBJECT_ID":"1990-010A","EPOCH":"2026-03-15T06:37:09.861312","MEAN_MOTION":15.11376498,"ECCENTRICITY":0.00085558,"INCLINATION":82.4665,"RA_OF_ASC_NODE":41.9228,"ARG_OF_PERICENTER":325.7993,"MEAN_ANOMALY":34.2685,"EPHEMERIS_TYPE":0,"CLASSIFICATION_TYPE":"U","NORAD_CAT_ID":20465,"ELEMENT_SET_NO":999,"REV_AT_EPOCH":94308,"BSTAR":0.00027849646,"MEAN_MOTION_DOT":4.73e-5,"MEAN_MOTION_DDOT":0},{"OBJECT_NAME":"SL-14 R/B","OBJECT_ID":"1990-010B","EPOCH":"2026-03-15T00:21:50.606784","MEAN_MOTION":14.83574152,"ECCENTRICITY":0.0018351,"INCLINATION":82.4987,"RA_OF_ASC_NODE":262.3847,"ARG_OF_PERICENTER":283.4593,"MEAN_ANOMALY":76.4577,"EPHEMERIS_TYPE":0,"CLASSIFICATION_TYPE":"U","NORAD_CAT_ID":20466,"ELEMENT_SET_NO":999,"REV_AT_EPOCH":92927,"BSTAR":5.889607e-5,"MEAN_MOTION_DOT":5.1e-6,"MEAN_MOTION_DDOT":0},{"OBJECT_NAME":"SL-14 R/B","OBJECT_ID":"1990-018B","EPOCH":"2026-03-15T04:09:20.274048","MEAN_MOTION":14.82151536,"ECCENTRICITY":0.00175867,"INCLINATION":82.5213,"RA_OF_ASC_NODE":217.9642,"ARG_OF_PERICENTER":75.4739,"MEAN_ANOMALY":284.8425,"EPHEMERIS_TYPE":0,"CLASSIFICATION_TYPE":"U","NORAD_CAT_ID":20511,"ELEMENT_SET_NO":999,"REV_AT_EPOCH":92339,"BSTAR":6.8017441e-5,"MEAN_MOTION_DOT":5.66e-6,"MEAN_MOTION_DDOT":0},{"OBJECT_NAME":"HST","OBJECT_ID":"1990-037B","EPOCH":"2026-03-15T02:20:10.455072","MEAN_MOTION":15.29577841,"ECCENTRICITY":0.00017548,"INCLINATION":28.4724,"RA_OF_ASC_NODE":3.1083,"ARG_OF_PERICENTER":179.9846,"MEAN_ANOMALY":180.075,"EPHEMERIS_TYPE":0,"CLASSIFICATION_TYPE":"U","NORAD_CAT_ID":20580,"ELEMENT_SET_NO":999,"REV_AT_EPOCH":77414,"BSTAR":0.00030179876,"MEAN_MOTION_DOT":9.139e-5,"MEAN_MOTION_DDOT":0},{"OBJECT_NAME":"SL-16 R/B","OBJECT_ID":"1990-046B","EPOCH":"2026-03-15T06:45:51.668064","MEAN_MOTION":14.15011261,"ECCENTRICITY":0.00161715,"INCLINATION":70.9975,"RA_OF_ASC_NODE":286.1694,"ARG_OF_PERICENTER":292.1593,"MEAN_ANOMALY":67.7814,"EPHEMERIS_TYPE":0,"CLASSIFICATION_TYPE":"U","NORAD_CAT_ID":20625,"ELEMENT_SET_NO":999,"REV_AT_EPOCH":84918,"BSTAR":1.13662e-5,"MEAN_MOTION_DOT":-2.6e-7,"MEAN_MOTION_DDOT":0},{"OBJECT_NAME":"COSMOS 2084","OBJECT_ID":"1990-055A","EPOCH":"2026-03-15T00:50:28.672512","MEAN_MOTION":15.05685158,"ECCENTRICITY":0.00162375,"INCLINATION":62.7914,"RA_OF_ASC_NODE":317.3473,"ARG_OF_PERICENTER":191.4264,"MEAN_ANOMALY":168.647,"EPHEMERIS_TYPE":0,"CLASSIFICATION_TYPE":"U","NORAD_CAT_ID":20663,"ELEMENT_SET_NO":999,"REV_AT_EPOCH":93712,"BSTAR":0.00020277077,"MEAN_MOTION_DOT":2.75e-5,"MEAN_MOTION_DDOT":0},{"OBJECT_NAME":"SL-6 R/B(2)","OBJECT_ID":"1990-055D","EPOCH":"2026-03-15T03:47:33.201888","MEAN_MOTION":15.03624571,"ECCENTRICITY":0.00256806,"INCLINATION":62.782,"RA_OF_ASC_NODE":235.2535,"ARG_OF_PERICENTER":348.3465,"MEAN_ANOMALY":11.7036,"EPHEMERIS_TYPE":0,"CLASSIFICATION_TYPE":"U","NORAD_CAT_ID":20666,"ELEMENT_SET_NO":999,"REV_AT_EPOCH":93901,"BSTAR":0.00019705804,"MEAN_MOTION_DOT":2.526e-5,"MEAN_MOTION_DDOT":0},{"OBJECT_NAME":"SL-8 R/B","OBJECT_ID":"1990-078B","EPOCH":"2026-03-15T05:16:21.293760","MEAN_MOTION":14.89261389,"ECCENTRICITY":0.03610285,"INCLINATION":82.8998,"RA_OF_ASC_NODE":246.336,"ARG_OF_PERICENTER":355.3933,"MEAN_ANOMALY":4.3985,"EPHEMERIS_TYPE":0,"CLASSIFICATION_TYPE":"U","NORAD_CAT_ID":20775,"ELEMENT_SET_NO":999,"REV_AT_EPOCH":81012,"BSTAR":0.0005822267,"MEAN_MOTION_DOT":0.0001974,"MEAN_MOTION_DDOT":0}]
